0000160500
137
SNDN54 EKMI 260800
AAXX 26084
06120 45965 52508 10015 20015 30080 40106 52020
  333 85/68 =
06123 45/81 /3209 10045 20019 30105 40109 52027
  333 55300 20061 =
06124 45/80 /3006 10023 20008 30097 40105 52028 =
06126 46/// /2503 10011 20000 30041 40105 52029
  333 55300 20068 =
06135 45/79 03104 10030 20020 30054 40097 52031
  333 55300 20061 =
06136 46/// /3004 10043 20025
  333 55300 20072 =
06138 46/// /3012 10050 20030 30099 40103 52031 =
06141 45/80 02804 10027 20014 30091 40102 52031
  333 55301 20090 =
06147 45/80 /3107 10053 20040 30091 40097 52032 =
06149 46/// /3106 10040 20024 30095 40102 52031
  333 55300 20054 =
06151 46/// /3113 10057 20037 30097 40100 52031 =
06154 45/75 03103 10034 20025 30038 40096 52030 =
06156 45/78 02803 10027 20017 30076 40093 52030
  333 55300 20083 =
06159 45/80 /3313 10056 20028 30077 40097 52032 =
06165 NIL =
06168 46/// /2404 10045 20044 30033 40086 52029 =
06169 45/83 /3213 10055 20036 30071 40091 52030 =
06170 46357 82704 10025 20025 30039 40094 52024
  333 81/09 83/11 88/36 =
06174 47/64 /2604 10045 20045 30064 40090 52030 70010
  333 55300 20018 =
06180 45666 82804 10054 20046 30083 40090 52022
  333 88/35 =
06181 46/// /2603 10042 20040 30035 40088 52029 =
06183 45/61 /3308 10054 20049 30070 40088 52029 =
06188 47509 72504 10031 20031 30035 40087 52029 78285
  333 55300 20029 87/27 =
06193 47584 82207 10059 20034 30078 40090 52029 72285
  333 55302 20065 81/31 85/43 88/50 =
06197 46/// /3002 10047 20042 30061 40092 52027
  333 55302 20068 =
0000080100
138
SNEO41 EEMH 260800
AAXX 26081
26134 27467 81604 11026 21051 30050 40117 52011 70000 88///
 333  11003 21027 60007 88/11 91109
 555  1/101 21027 3/102 51006 52102=
26144 27/74 /1804 11031 21064 30049 40138 51010 70000
 333  11012 21039 60007
 555  21039 51016 52104=
26214 27358 81810 10036 20022 30075 40083 52013 78188 88///
 333  10036 20016 69927 88/08 91014 91114
 555  1/003 20016 3/001 50034=
26218 27358 71909 10017 20004 30089 40091 53011 71010 87///
 333  10018 20009 60007 87/07 91012 91114
 555  20009 50020=
26226 27460 71709 10020 20002 30109 40113 52012 71010 87///
 333  10032 20014 60007 87/11 91012 91113
 555  20014 50029=
26227 27359 71708 10012 21005 30109 40111 53014 71087 87///
 333  10018 20008 60007 87/10 91011 91113
 555  20008 50018=
0000170500
139
SNDN53 EKMI 260800
AAXX 26084
06019 46/// /2601 10028 21005
  333 55300 20036 =
06030 45/66 /2004 11008 21014 30081 40097 52021 =
06031 46/// /2002 11021 21025
  333 55300 20040 =
06032 46/// /2501 10000 21009 30026 40097 52029 =
06041 45/84 00207 10043 20010 30085 40091 52029
  333 55300 20040 =
06049 45/81 02804 10005 21009 39991 40102 52030 =
06052 45/61 03315 10069 20015 30102 40106 52025 =
06055 46/// /3417 =
06056 46/// /3104 10021 20004 30041 40107 52028
  333 55300 20040 =
06058 45/82 /3315 10072 20014 30107 40112 52025
  333 55300 20040 =
06060 45/81 02605 11018 21028 30042 40109 52020 =
06065 46/// /2905 10009 20001 30060 40102 52028
  333 55300 20036 =
06068 46/// /0000 11023 21028 30032 40111 52029
  333 55300 20079 =
06069 46/// /2602 10005 21006 30030 40103 52028
  333 55300 20058 =
06070 45/75 /2705 10009 21006 30069 40100 52020 =
06072 46/// /2904 10009 21002 30025 40102 52029
  333 55300 20036 =
06073 46/// /3408 10030 20030 30091 40098 52029 =
06074 45/81 02905 10007 21004 30033 40102 52028 =
06079 45474 13513 10064 20028 30083 40087 52033
  333 55300 20043 81/16 =
06081 46/// /3317 10075 20021 30094 40116 52024 =
06082 46/// /3104 10030 20007
  333 55300 20032 =
06093 46/// /3407 10046 20021 30110 40114 52026 =
06096 47/79 03312 10056 20023 30104 40115 52024 76164
  333 55300 20058 =
06102 46/// /2605 10006 21005 30076 40106 52026
  333 55300 20047 =
06104 465// 62905 10014 21001 30015 40114 52022
  333 86/29 =
06109 46/// /3002 10018 20003
  333 55300 20040 =
06110 46/// /2404 11016 21023 30058 40117 52023 =
06119 45/74 03007 10032 20008 30087 40110 52027 =
